[{"OBJECT_NAME":"STARLINK-32800","OBJECT_ID":"2025-014J","EPOCH":"2026-03-09T23:00:32.728896","MEAN_MOTION":15.27580308,"ECCENTRICITY":0.00013849,"INCLINATION":43.0009,"RA_OF_ASC_NODE":160.2166,"ARG_OF_PERICENTER":273.5722,"MEAN_ANOMALY":86.4972,"EPHEMERIS_TYPE":0,"CLASSIFICATION_TYPE":"U","NORAD_CAT_ID":62743,"ELEMENT_SET_NO":999,"REV_AT_EPOCH":6321,"BSTAR":0.0011843568,"MEAN_MOTION_DOT":0.00032473,"MEAN_MOTION_DDOT":0},{"OBJECT_NAME":"OBJECT BE","OBJECT_ID":"2025-313BE","EPOCH":"2026-03-09T16:43:59.380320","MEAN_MOTION":15.29801687,"ECCENTRICITY":0.00072083,"INCLINATION":97.3989,"RA_OF_ASC_NODE":145.3568,"ARG_OF_PERICENTER":335.3714,"MEAN_ANOMALY":24.7181,"EPHEMERIS_TYPE":0,"CLASSIFICATION_TYPE":"U","NORAD_CAT_ID":67482,"ELEMENT_SET_NO":999,"REV_AT_EPOCH":797,"BSTAR":0.0026504328,"MEAN_MOTION_DOT":0.00077178,"MEAN_MOTION_DDOT":0}]
